start=new Date('2023-06-13T00:00:00.000Z').valueOf();
sats=[{"RCS_SIZE":"LARGE","EPHEMERIS_TYPE":"0","LAUNCH_DATE":"2022-09-11","BSTAR":"0.00025467000000","SEMIMAJOR_AXIS":"6917.947","REV_AT_EPOCH":"4172","OBJECT_NAME":"STARLINK-4712","COUNTRY_CODE":"US","APOAPSIS":"540.562","DECAY_DATE":null,"NORAD_CAT_ID":"53798","MEAN_MOTION_DOT":"0.00003765","PERIAPSIS":"539.062","CENTER_NAME":"EARTH","MEAN_ANOMALY":"272.0063","TLE_LINE2":"2 53798  53.2157  88.3117 0001084  88.1054 272.0063 15.08818150 41725","RA_OF_ASC_NODE":"88.3117","ARG_OF_PERICENTER":"88.1054","SITE":"AFETR","CLASSIFICATION_TYPE":"U","ECCENTRICITY":"0.00010840","FILE":"3931569","PERIOD":"95.439","TLE_LINE1":"1 53798U 22111AB  23163.48354374  .00003765  00000-0  25467-3 0  9990","TIME_SYSTEM":"UTC","REF_FRAME":"TEME","MEAN_MOTION":"15.08818150","OBJECT_TYPE":"PAYLOAD","EPOCH":"2023-06-12T11:36:18.179136","MEAN_ELEMENT_THEORY":"SGP4","OBJECT_ID":"2022-111AB","MEAN_MOTION_DDOT":"0.0000000000000","INCLINATION":"53.2157","GP_ID":"233777993","ELEMENT_SET_NO":"999"},{"ELEMENT_SET_NO":"999","GP_ID":"233767024","MEAN_ELEMENT_THEORY":"SGP4","EPOCH":"2023-06-12T01:07:03.324000","INCLINATION":"53.2174","OBJECT_ID":"2022-111AC","MEAN_MOTION_DDOT":"0.0000000000000","OBJECT_TYPE":"PAYLOAD","MEAN_MOTION":"15.08841649","TIME_SYSTEM":"UTC","REF_FRAME":"TEME","TLE_LINE1":"1 53799U 22111AC  23163.04656625  .00001447  00000-0  10898-3 0  9994","PERIOD":"95.437","SITE":"AFETR","ECCENTRICITY":"0.00011130","FILE":"3931287","CLASSIFICATION_TYPE":"U","ARG_OF_PERICENTER":"87.8370","MEAN_ANOMALY":"272.2750","RA_OF_ASC_NODE":"80.5745","TLE_LINE2":"2 53799  53.2174  80.5745 0001113  87.8370 272.2750 15.08841649 42608","PERIAPSIS":"538.970","CENTER_NAME":"EARTH","MEAN_MOTION_DOT":"0.00001447","APOAPSIS":"540.510","DECAY_DATE":null,"COUNTRY_CODE":"US","NORAD_CAT_ID":"53799","SEMIMAJOR_AXIS":"6917.875","OBJECT_NAME":"STARLINK-4710","REV_AT_EPOCH":"4260","EPHEMERIS_TYPE":"0","LAUNCH_DATE":"2022-09-11","RCS_SIZE":"LARGE","BSTAR":"0.00010898000000"},{"NORAD_CAT_ID":"53800","COUNTRY_CODE":"US","APOAPSIS":"540.637","DECAY_DATE":null,"OBJECT_NAME":"STARLINK-4720","REV_AT_EPOCH":"4260","SEMIMAJOR_AXIS":"6917.841","BSTAR":"-0.00005679200000","RCS_SIZE":"LARGE","LAUNCH_DATE":"2022-09-11","EPHEMERIS_TYPE":"0","ARG_OF_PERICENTER":"94.7782","TLE_LINE2":"2 53800  53.2174  80.5976 0001346  94.7782 265.3364 15.08852773 42603","RA_OF_ASC_NODE":"80.5976","MEAN_ANOMALY":"265.3364","CENTER_NAME":"EARTH","PERIAPSIS":"538.775","MEAN_MOTION_DOT":"-0.00001192","MEAN_MOTION":"15.08852773","REF_FRAME":"TEME","TIME_SYSTEM":"UTC","TLE_LINE1":"1 53800U 22111AD  23163.05024668 -.00001192  00000-0 -56792-4 0  9997","PERIOD":"95.437","CLASSIFICATION_TYPE":"U","ECCENTRICITY":"0.00013460","FILE":"3931287","SITE":"AFETR","ELEMENT_SET_NO":"999","GP_ID":"233767274","OBJECT_ID":"2022-111AD","MEAN_MOTION_DDOT":"0.0000000000000","INCLINATION":"53.2174","EPOCH":"2023-06-12T01:12:21.313152","MEAN_ELEMENT_THEORY":"SGP4","OBJECT_TYPE":"PAYLOAD"},{"BSTAR":"-0.00002090500000","RCS_SIZE":"LARGE","EPHEMERIS_TYPE":"0","LAUNCH_DATE":"2022-09-11","OBJECT_NAME":"STARLINK-4715","REV_AT_EPOCH":"4186","SEMIMAJOR_AXIS":"6917.899","NORAD_CAT_ID":"53801","COUNTRY_CODE":"US","DECAY_DATE":null,"APOAPSIS":"540.705","MEAN_MOTION_DOT":"-0.00000621","CENTER_NAME":"EARTH","PERIAPSIS":"538.824","TLE_LINE2":"2 53801  53.2184  78.4485 0001359  82.4121 277.7026 15.08833772 41868","RA_OF_ASC_NODE":"78.4485","MEAN_ANOMALY":"277.7026","ARG_OF_PERICENTER":"82.4121","CLASSIFICATION_TYPE":"U","ECCENTRICITY":"0.00013590","FILE":"3931589","SITE":"AFETR","TLE_LINE1":"1 53801U 22111AE  23163.50288689 -.00000621  00000-0 -20905-4 0  9996","PERIOD":"95.438","REF_FRAME":"TEME","TIME_SYSTEM":"UTC","MEAN_MOTION":"15.08833772","OBJECT_TYPE":"PAYLOAD","OBJECT_ID":"2022-111AE","MEAN_MOTION_DDOT":"0.0000000000000","INCLINATION":"53.2184","EPOCH":"2023-06-12T12:04:09.427296","MEAN_ELEMENT_THEORY":"SGP4","GP_ID":"233777510","ELEMENT_SET_NO":"999"},{"REV_AT_EPOCH":"4260","OBJECT_NAME":"STARLINK-4726","SEMIMAJOR_AXIS":"6917.873","BSTAR":"0.00011928000000","EPHEMERIS_TYPE":"0","LAUNCH_DATE":"2022-09-11","RCS_SIZE":"LARGE","NORAD_CAT_ID":"53802","APOAPSIS":"540.349","DECAY_DATE":null,"COUNTRY_CODE":"US","CENTER_NAME":"EARTH","PERIAPSIS":"539.127","MEAN_MOTION_DOT":"0.00001611","ARG_OF_PERICENTER":"86.5897","RA_OF_ASC_NODE":"80.5530","TLE_LINE2":"2 53802  53.2165  80.5530 0000883  86.5897 273.5196 15.08842388 42607","MEAN_ANOMALY":"273.5196","TLE_LINE1":"1 53802U 22111AF  23163.04288195  .00001611  00000-0  11928-3 0  9990","PERIOD":"95.437","FILE":"3931287","ECCENTRICITY":"0.00008830","CLASSIFICATION_TYPE":"U","SITE":"AFETR","MEAN_MOTION":"15.08842388","REF_FRAME":"TEME","TIME_SYSTEM":"UTC","INCLINATION":"53.2165","OBJECT_ID":"2022-111AF","MEAN_MOTION_DDOT":"0.0000000000000","MEAN_ELEMENT_THEORY":"SGP4","EPOCH":"2023-06-12T01:01:45.000480","OBJECT_TYPE":"PAYLOAD","ELEMENT_SET_NO":"999","GP_ID":"233768274"},{"MEAN_MOTION":"15.08840880","REF_FRAME":"TEME","TIME_SYSTEM":"UTC","PERIOD":"95.437","TLE_LINE1":"1 53803U 22111AG  23163.45461242  .00000656  00000-0  59268-4 0  9990","CLASSIFICATION_TYPE":"U","FILE":"3931287","ECCENTRICITY":"0.00012860","SITE":"AFETR","ELEMENT_SET_NO":"999","GP_ID":"233766525","MEAN_MOTION_DDOT":"0.0000000000000","OBJECT_ID":"2022-111AG","INCLINATION":"53.2175","EPOCH":"2023-06-12T10:54:38.513088","MEAN_ELEMENT_THEORY":"SGP4","OBJECT_TYPE":"PAYLOAD","NORAD_CAT_ID":"53803","COUNTRY_CODE":"US","DECAY_DATE":null,"APOAPSIS":"540.632","OBJECT_NAME":"STARLINK-4727","REV_AT_EPOCH":"4287","SEMIMAJOR_AXIS":"6917.878","BSTAR":"0.00005926800000","RCS_SIZE":"LARGE","LAUNCH_DATE":"2022-09-11","EPHEMERIS_TYPE":"0","ARG_OF_PERICENTER":"76.8377","TLE_LINE2":"2 53803  53.2175  63.8853 0001286  76.8377 283.2759 15.08840880 42871","RA_OF_ASC_NODE":"63.8853","MEAN_ANOMALY":"283.2759","CENTER_NAME":"EARTH","PERIAPSIS":"538.853","MEAN_MOTION_DOT":"0.00000656"},{"REF_FRAME":"TEME","TIME_SYSTEM":"UTC","MEAN_MOTION":"15.08833022","ECCENTRICITY":"0.00012370","FILE":"3931287","CLASSIFICATION_TYPE":"U","SITE":"AFETR","PERIOD":"95.438","TLE_LINE1":"1 53804U 22111AH  23163.03509628  .00000054  00000-0  21464-4 0  9995","GP_ID":"233766775","ELEMENT_SET_NO":"999","OBJECT_TYPE":"PAYLOAD","INCLINATION":"53.2175","MEAN_MOTION_DDOT":"0.0000000000000","OBJECT_ID":"2022-111AH","MEAN_ELEMENT_THEORY":"SGP4","EPOCH":"2023-06-12T00:50:32.318592","NORAD_CAT_ID":"53804","APOAPSIS":"540.622","DECAY_DATE":null,"COUNTRY_CODE":"US","BSTAR":"0.00002146400000","LAUNCH_DATE":"2022-09-11","EPHEMERIS_TYPE":"0","RCS_SIZE":"LARGE","OBJECT_NAME":"STARLINK-4729","REV_AT_EPOCH":"4267","SEMIMAJOR_AXIS":"6917.902","RA_OF_ASC_NODE":"75.5057","TLE_LINE2":"2 53804  53.2175  75.5057 0001237  91.5407 268.5727 15.08833022 42671","MEAN_ANOMALY":"268.5727","ARG_OF_PERICENTER":"91.5407","MEAN_MOTION_DOT":"0.00000054","CENTER_NAME":"EARTH","PERIAPSIS":"538.911"},{"MEAN_MOTION":"15.08839643","REF_FRAME":"TEME","TIME_SYSTEM":"UTC","PERIOD":"95.438","TLE_LINE1":"1 53805U 22111AJ  23163.59077523  .00000145  00000-0  27192-4 0  9996","ECCENTRICITY":"0.00012970","FILE":"3931605","CLASSIFICATION_TYPE":"U","SITE":"AFETR","ELEMENT_SET_NO":"999","GP_ID":"233801075","INCLINATION":"53.2177","OBJECT_ID":"2022-111AJ","MEAN_MOTION_DDOT":"0.0000000000000","MEAN_ELEMENT_THEORY":"SGP4","EPOCH":"2023-06-12T14:10:42.979872","OBJECT_TYPE":"PAYLOAD","NORAD_CAT_ID":"53805","APOAPSIS":"540.644","DECAY_DATE":null,"COUNTRY_CODE":"US","REV_AT_EPOCH":"4289","OBJECT_NAME":"STARLINK-4763","SEMIMAJOR_AXIS":"6917.881","BSTAR":"0.00002719200000","LAUNCH_DATE":"2022-09-11","EPHEMERIS_TYPE":"0","RCS_SIZE":"LARGE","ARG_OF_PERICENTER":"83.4029","RA_OF_ASC_NODE":"63.3116","TLE_LINE2":"2 53805  53.2177  63.3116 0001297  83.4029 276.7111 15.08839643 42898","MEAN_ANOMALY":"276.7111","CENTER_NAME":"EARTH","PERIAPSIS":"538.849","MEAN_MOTION_DOT":"0.00000145"},{"LAUNCH_DATE":"2022-09-11","EPHEMERIS_TYPE":"0","RCS_SIZE":"LARGE","BSTAR":"0.00004867600000","SEMIMAJOR_AXIS":"6917.878","OBJECT_NAME":"STARLINK-4768","REV_AT_EPOCH":"4287","APOAPSIS":"540.518","DECAY_DATE":null,"COUNTRY_CODE":"US","NORAD_CAT_ID":"53806","MEAN_MOTION_DOT":"0.00000487","PERIAPSIS":"538.967","CENTER_NAME":"EARTH","MEAN_ANOMALY":"280.5466","RA_OF_ASC_NODE":"63.7643","TLE_LINE2":"2 53806  53.2175  63.7643 0001121  79.5653 280.5466 15.08840934 42870","ARG_OF_PERICENTER":"79.5653","SITE":"AFETR","ECCENTRICITY":"0.00011210","FILE":"3931287","CLASSIFICATION_TYPE":"U","TLE_LINE1":"1 53806U 22111AK  23163.43618601  .00000487  00000-0  48676-4 0  9997","PERIOD":"95.437","TIME_SYSTEM":"UTC","REF_FRAME":"TEME","MEAN_MOTION":"15.08840934","OBJECT_TYPE":"PAYLOAD","MEAN_ELEMENT_THEORY":"SGP4","EPOCH":"2023-06-12T10:28:06.471264","INCLINATION":"53.2175","MEAN_MOTION_DDOT":"0.0000000000000","OBJECT_ID":"2022-111AK","GP_ID":"233767775","ELEMENT_SET_NO":"999"},{"TLE_LINE2":"2 53818  53.2156 114.4947 0006392  30.7331 329.4038 15.17512401 41850","RA_OF_ASC_NODE":"114.4947","MEAN_ANOMALY":"329.4038","ARG_OF_PERICENTER":"30.7331","MEAN_MOTION_DOT":"0.00024358","CENTER_NAME":"EARTH","PERIAPSIS":"508.959","NORAD_CAT_ID":"53818","COUNTRY_CODE":"US","APOAPSIS":"517.769","DECAY_DATE":null,"BSTAR":"0.00121120000000","RCS_SIZE":"LARGE","EPHEMERIS_TYPE":"0","LAUNCH_DATE":"2022-09-19","REV_AT_EPOCH":"4185","OBJECT_NAME":"STARLINK-4749","SEMIMAJOR_AXIS":"6891.499","GP_ID":"233802577","ELEMENT_SET_NO":"999","OBJECT_TYPE":"PAYLOAD","OBJECT_ID":"2022-114A","MEAN_MOTION_DDOT":"0.0000000000000","INCLINATION":"53.2156","EPOCH":"2023-06-12T14:13:24.185856","MEAN_ELEMENT_THEORY":"SGP4","REF_FRAME":"TEME","TIME_SYSTEM":"UTC","MEAN_MOTION":"15.17512401","CLASSIFICATION_TYPE":"U","ECCENTRICITY":"0.00063920","FILE":"3931605","SITE":"AFETR","TLE_LINE1":"1 53818U 22114A   23163.59264104  .00024358  00000-0  12112-2 0  9992","PERIOD":"94.892"}];
